MEAN_MOTION;ECCENTRICITY;INCLINATION;RA_OF_ASC_NODE;ARG_OF_PERICENTER;MEAN_ANOMALY;BSTAR;MEAN_MOTION_DOT;MEAN_MOTION_DDOT;TYPE
14.34218672;0.0002543;86.401;349.7241;73.7307;286.4169;1.3986E-5;5.9E-7;0;Iridium
14.3421877;0.0002526;86.401;349.5201;73.5238;286.6236;1.5885E-5;6.4E-7;0;Iridium
14.34218856;0.0002522;86.401;349.258;73.4444;286.7028;1.693E-5;6.7E-7;0;Iridium
14.34218972;0.0002509;86.4009;349.0832;73.178;286.9691;2.0592E-5;7.7E-7;0;Iridium
14.34218972;0.0002509;86.4009;349.0832;73.178;286.9691;2.0592E-5;7.7E-7;0;Iridium
14.34218976;0.000251;86.4009;348.8502;72.4684;287.6786;1.7251E-5;6.8E-7;0;Iridium
14.34219062;0.0002496;86.4009;348.6754;72.3958;287.751;1.9774E-5;7.5E-7;0;Iridium
14.34219131;0.0002481;86.4008;348.5006;72.1855;287.9611;2.128E-5;7.9E-7;0;Iridium
14.34219224;0.0002458;86.4008;348.2675;71.8347;288.3116;2.3578E-5;8.6E-7;0;Iridium
14.34219264;0.0002445;86.4007;348.0927;71.78;288.3662;2.372E-5;8.6E-7;0;Iridium
14.34219323;0.0002424;86.4007;347.8596;71.525;288.6209;2.3985E-5;8.7E-7;0;Iridium
14.34219378;0.000241;86.4006;347.6556;71.3804;288.7654;2.422E-5;8.8E-7;0;Iridium
14.34219409;0.0002394;86.4006;347.4808;71.1584;288.9871;2.4634E-5;8.9E-7;0;Iridium
14.34219437;0.0002376;86.4005;347.2185;70.9264;289.2189;2.2928E-5;8.4E-7;0;Iridium
14.34219536;0.0002357;86.4005;347.0145;70.5382;289.6069;2.5257E-5;9.1E-7;0;Iridium
14.34219536;0.0002357;86.4005;347.0145;70.5382;289.6069;2.5257E-5;9.1E-7;0;Iridium
14.34219557;0.0002343;86.4005;346.8105;70.2814;289.8634;2.3368E-5;8.5E-7;0;Iridium
14.34219803;0.0002313;86.4003;346.3443;70.678;289.4666;2.833E-5;9.9E-7;0;Iridium
14.34219921;0.0002312;86.4003;346.0528;70.1412;290.0033;2.9123E-5;1.01E-6;0;Iridium
14.34219944;0.000231;86.4003;345.9654;69.9622;290.1823;2.7811E-5;9.8E-7;0;Iridium
14.34219948;0.0002294;86.4002;345.6449;69.2153;290.9289;2.1516E-5;8.0E-7;0;Iridium
14.34219984;0.0002279;86.4001;345.4992;69.4154;290.7286;2.0393E-5;7.7E-7;0;Iridium
14.34220047;0.0002254;86.4;345.237;69.0276;291.1161;1.8682E-5;7.2E-7;0;Iridium
14.34220118;0.0002237;86.4;345.0913;68.9704;291.1731;2.0812E-5;7.8E-7;0;Iridium
14.34215162;0.0002235;86.3998;344.8288;68.2659;291.8774;1.8179E-5;7.1E-7;0;Iridium
14.34215772;0.0002222;86.3999;344.6832;69.0111;291.1323;1.7178E-5;6.8E-7;0;Iridium
14.34215736;0.0002195;86.3998;344.3919;68.9458;291.1972;-1.2694E-6;1.6E-7;0;Iridium
14.34215727;0.0002178;86.3998;344.2462;69.1229;291.02;-3.1292E-6;1.1E-7;0;Iridium
14.34215755;0.0002162;86.3997;344.1005;68.9834;291.1592;-3.3494E-6;1.0E-7;0;Iridium
14.34215749;0.0002142;86.3997;343.8965;68.8903;291.2522;-3.6875E-6;9.0E-8;0;Iridium
14.34215956;0.0002113;86.3996;343.5759;68.6828;291.4593;1.4446E-5;6.0E-7;0;Iridium
14.34215956;0.0002113;86.3996;343.5759;68.6828;291.4593;1.4446E-5;6.0E-7;0;Iridium
14.3421602;0.0002099;86.3995;343.4302;68.8573;291.2847;1.7427E-5;6.9E-7;0;Iridium
14.3421603;0.0002081;86.3995;343.1679;68.8012;291.3406;1.489E-5;6.1E-7;0;Iridium
14.34216081;0.0002062;86.3995;342.993;68.9998;291.1418;1.6662E-5;6.6E-7;0;Iridium
14.34216142;0.000204;86.3994;342.7307;68.8415;291.2999;1.7501E-5;6.9E-7;0;Iridium
14.34216142;0.000204;86.3994;342.7307;68.8415;291.2999;1.7501E-5;6.9E-7;0;Iridium
14.34216224;0.0002028;86.3994;342.585;69.0558;291.0855;2.1016E-5;7.9E-7;0;Iridium
14.34216274;0.0002012;86.3993;342.3227;68.8071;291.334;2.0301E-5;7.7E-7;0;Iridium
14.3421637;0.0001993;86.3992;342.1769;69.1422;290.9987;2.4837E-5;8.9E-7;0;Iridium
14.34216416;0.0001972;86.3991;341.8854;69.2136;290.9271;2.2571E-5;8.3E-7;0;Iridium
14.342165;0.0001956;86.399;341.7397;69.4964;290.6441;2.6575E-5;9.4E-7;0;Iridium
14.342166;0.0001935;86.3989;341.4773;69.5497;290.5906;2.791E-5;9.8E-7;0;Iridium
14.3421664;0.000192;86.3988;341.3316;69.8208;290.3194;2.7379E-5;9.6E-7;0;Iridium
14.34216759;0.0001897;86.3987;341.0692;69.8252;290.3148;2.958E-5;1.03E-6;0;Iridium
14.3421679;0.0001895;86.3987;341.0401;69.8309;290.3091;3.0624E-5;1.06E-6;0;Iridium
14.34216797;0.000188;86.3986;340.8943;69.9519;290.1879;2.8502E-5;1.0E-6;0;Iridium
14.34216845;0.0001867;86.3986;340.7777;69.9177;290.222;2.7674E-5;9.7E-7;0;Iridium
14.34216922;0.0001846;86.3984;340.5445;70.2568;289.8826;2.7245E-5;9.6E-7;0;Iridium
14.34216956;0.0001835;86.3984;340.4278;70.3255;289.8138;2.7522E-5;9.7E-7;0;Iridium
14.34217006;0.0001813;86.3983;340.1363;70.6292;289.51;2.2746E-5;8.3E-7;0;Iridium
14.34217103;0.0001795;86.3982;339.9614;70.8213;289.3177;2.4728E-5;8.9E-7;0;Iridium
14.34217103;0.0001795;86.3982;339.9614;70.8213;289.3177;2.4728E-5;8.9E-7;0;Iridium
14.34217147;0.0001779;86.3981;339.7281;71.1082;289.0307;2.181E-5;8.1E-7;0;Iridium
14.34217239;0.0001759;86.398;339.524;71.3354;288.8033;2.2456E-5;8.3E-7;0;Iridium
14.34217239;0.0001759;86.398;339.524;71.3354;288.8033;2.2456E-5;8.3E-7;0;Iridium
14.34217438;0.0001713;86.3977;338.97;72.2293;287.909;2.1974E-5;8.1E-7;0;Iridium
14.34217438;0.0001713;86.3977;338.97;72.2293;287.909;2.1974E-5;8.1E-7;0;Iridium
14.34217603;0.0001689;86.3976;338.7076;72.7467;287.3913;2.4479E-5;8.8E-7;0;Iridium
14.34217649;0.0001678;86.3975;338.4744;73.3225;286.8154;2.2479E-5;8.3E-7;0;Iridium
14.34217752;0.0001654;86.3974;338.1245;73.6727;286.465;2.2545E-5;8.3E-7;0;Iridium
14.34217737;0.0001654;86.3973;338.0953;73.6395;286.4982;2.1176E-5;7.9E-7;0;Iridium
14.34217737;0.0001653;86.3973;338.0661;73.6548;286.4829;2.0657E-5;7.8E-7;0;Iridium
14.34217878;0.0001646;86.3973;337.6577;76.6974;283.4405;2.1511E-5;8.0E-7;0;Iridium
14.34217867;0.0001647;86.3973;337.6286;76.9001;283.2378;2.0961E-5;7.8E-7;0;Iridium
14.34218014;0.000163;86.3972;337.2495;77.5705;282.5673;2.2903E-5;8.4E-7;0;Iridium
14.34218013;0.0001631;86.3971;337.2203;77.5371;282.6007;2.2527E-5;8.3E-7;0;Iridium
14.34218154;0.0001618;86.397;336.8703;77.8183;282.3193;2.555E-5;9.1E-7;0;Iridium
14.34218158;0.0001617;86.3969;336.812;77.8631;282.2746;2.4478E-5;8.8E-7;0;Iridium
14.34218262;0.0001597;86.3968;336.4619;78.3274;281.8101;2.6051E-5;9.3E-7;0;Iridium
14.34218261;0.0001596;86.3967;336.4036;78.3565;281.781;2.4553E-5;8.9E-7;0;Iridium
14.3421843;0.000158;86.3966;335.966;80.3616;279.7758;2.735E-5;9.6E-7;0;Iridium
14.34218575;0.0001568;86.3964;335.5576;81.9027;278.2346;2.7558E-5;9.7E-7;0;Iridium
14.34218688;0.0001554;86.3963;335.1783;82.5632;277.574;2.6463E-5;9.4E-7;0;Iridium
14.34218691;0.0001553;86.3962;335.1491;82.6857;277.4515;2.5938E-5;9.2E-7;0;Iridium
14.34218781;0.0001543;86.3961;334.7699;83.7638;276.3733;2.3343E-5;8.5E-7;0;Iridium
14.3421879;0.0001543;86.3961;334.7407;83.8834;276.2537;2.2947E-5;8.4E-7;0;Iridium
14.3421893;0.0001536;86.3959;334.3323;85.1981;274.939;2.1509E-5;8.0E-7;0;Iridium
14.34218939;0.0001535;86.3959;334.3031;85.2554;274.8817;2.1445E-5;8.0E-7;0;Iridium
14.3421913;0.0001545;86.3958;333.8947;87.3753;272.762;2.2041E-5;8.1E-7;0;Iridium
14.34219248;0.0001549;86.3956;333.5154;89.0025;271.1348;2.0831E-5;7.8E-7;0;Iridium
14.34219248;0.0001549;86.3956;333.5154;89.0025;271.1348;2.0831E-5;7.8E-7;0;Iridium
14.34219254;0.0001549;86.3956;333.4863;89.0721;271.0652;2.0478E-5;7.7E-7;0;Iridium
14.34219296;0.0001545;86.3956;333.2821;89.516;270.6213;1.9516E-5;7.4E-7;0;Iridium
14.34219387;0.0001536;86.3955;332.8736;90.2318;269.9053;1.8213E-5;7.1E-7;0;Iridium
14.34219433;0.0001544;86.3954;332.6985;90.9241;269.2132;1.8298E-5;7.1E-7;0;Iridium
14.34219431;0.0001547;86.3954;332.6402;90.8622;269.2751;1.7136E-5;6.8E-7;0;Iridium
14.34219508;0.000155;86.3953;332.2317;91.5376;268.5998;1.6198E-5;6.5E-7;0;Iridium
14.34219508;0.000155;86.3953;332.2317;91.5376;268.5998;1.6198E-5;6.5E-7;0;Iridium
14.34219597;0.0001565;86.3952;331.8522;92.8138;267.3237;1.7679E-5;6.9E-7;0;Iridium
14.34219625;0.0001567;86.3952;331.7939;92.8581;267.2794;1.8415E-5;7.1E-7;0;Iridium
14.34219788;0.0001584;86.395;331.4144;94.2134;265.9242;2.2654E-5;8.3E-7;0;Iridium
14.34219793;0.0001586;86.3951;331.3852;94.2501;265.8876;2.2873E-5;8.4E-7;0;Iridium
14.34219918;0.0001601;86.3949;330.9766;95.3572;264.7806;2.4425E-5;8.8E-7;0;Iridium
14.34219913;0.0001606;86.3949;330.8599;95.615;264.5229;2.4249E-5;8.8E-7;0;Iridium
14.3421997;0.0001615;86.3948;330.5972;96.2352;263.9028;2.2879E-5;8.4E-7;0;Iridium
14.34219969;0.0001617;86.3948;330.568;96.3361;263.8018;2.2338E-5;8.2E-7;0;Iridium
14.34220071;0.0001634;86.3947;330.1886;97.264;262.8742;2.2768E-5;8.4E-7;0;Iridium
14.34220082;0.0001638;86.3947;330.1302;97.5927;262.5455;2.2448E-5;8.3E-7;0;Iridium
14.34220246;0.0001659;86.3945;329.7507;98.5549;261.5835;2.4717E-5;8.9E-7;0;Iridium
14.34220269;0.0001666;86.3945;329.6048;98.9086;261.2299;2.4677E-5;8.9E-7;0;Iridium
14.34220372;0.0001682;86.3944;329.3421;99.4068;260.7318;2.4218E-5;8.8E-7;0;Iridium
14.34220375;0.0001685;86.3944;329.3129;99.4658;260.6729;2.3709E-5;8.6E-7;0;Iridium
14.34218274;0.0001747;86.3943;328.9045;100.3416;259.7977;2.2289E-5;8.2E-7;0;Iridium
14.34218274;0.0001747;86.3943;328.9045;100.3416;259.7977;2.2289E-5;8.2E-7;0;Iridium
14.34218214;0.0001777;86.3942;328.4664;101.2204;258.9192;1.1573E-6;2.3E-7;0;Iridium
14.34218213;0.0001782;86.3942;328.3497;101.4514;258.6882;1.4304E-6;2.4E-7;0;Iridium
14.34218095;0.0001692;86.3942;328.0868;97.7361;262.4026;-4.6405E-6;7.0E-8;0;Iridium
14.34218052;0.0001703;86.3941;327.9409;98.1087;262.0302;-6.8843E-6;0;0;Iridium
14.34217998;0.0001716;86.394;327.6782;98.4541;261.6849;-8.8697E-6;-5.0E-8;0;Iridium
14.34217999;0.0001717;86.394;327.649;98.5073;261.6318;-8.6532E-6;-4.0E-8;0;Iridium
14.34217905;0.0001755;86.3938;327.036;99.3378;260.8016;-1.0031E-5;-8.0E-8;0;Iridium
14.34217905;0.0001774;86.3937;326.8316;99.8732;260.2664;-8.8651E-6;-5.0E-8;0;Iridium
14.34217898;0.0001777;86.3937;326.8024;99.9813;260.1583;-8.9832E-6;-5.0E-8;0;Iridium
14.34217872;0.00018;86.3936;326.4228;100.1719;259.968;-8.5068E-6;-4.0E-8;0;Iridium
14.34217848;0.0001812;86.3935;326.3644;100.6858;259.4541;-9.1371E-6;-6.0E-8;0;Iridium
14.34217821;0.0001845;86.3934;325.9848;101.0718;259.0686;-8.4701E-6;-4.0E-8;0;Iridium
14.34217798;0.0001862;86.3934;325.8389;101.4863;258.6542;-8.3146E-6;-4.0E-8;0;Iridium
14.34217734;0.0001879;86.3933;325.576;101.4755;258.6652;-9.7371E-6;-7.0E-8;0;Iridium
